CCSDS_OMM_VERS,COMMENT,CREATION_DATE,ORIGINATOR,OBJECT_NAME,OBJECT_ID,CENTER_NAME,REF_FRAME,TIME_SYSTEM,MEAN_ELEMENT_THEORY,EPOCH,MEAN_MOTION,ECCENTRICITY,INCLINATION,RA_OF_ASC_NODE,ARG_OF_PERICENTER,MEAN_ANOMALY,EPHEMERIS_TYPE,CLASSIFICATION_TYPE,NORAD_CAT_ID,ELEMENT_SET_NO,REV_AT_EPOCH,BSTAR,MEAN_MOTION_DOT,MEAN_MOTION_DDOT,SEMIMAJOR_AXIS,PERIOD,APOAPSIS,PERIAPSIS,OBJECT_TYPE,RCS_SIZE,COUNTRY_CODE,LAUNCH_DATE,SITE,DECAY_DATE,FILE,GP_ID,TLE_LINE0,TLE_LINE1,TLE_LINE2,NORAD_KEY,JCAT,DeepCat,Satcat,Piece,Active,Type,Name,LDate,Parent,Owner,State,SDate,ExpandedStatus,DDate,ODate,Period,Perigee,PF,Apogee,AF,Inc,IF,OpOrbit,SATCAT_KEY
3.0,GENERATED VIA SPACE-TRACK.ORG API,2026-05-06T14:56:52,18 SPCS,GALAXY 12,2003-013B,EARTH,TEME,UTC,SGP4,2026-05-06T11:15:07.566912,0.98982472,0.0005047,6.8824,69.7611,300.0233,100.9676,0,U,27715,999,5155,0.00000000000000,0.00000055,0.0000000000000,42530.091,1454.803,36173.421,36130.491,PAYLOAD,LARGE,ITSO,2003-04-09,FRGUI,,5177620,322308228,0 GALAXY 12,1 27715U 03013B   26126.46883758  .00000055  00000-0  00000+0 0  9994,2 27715   6.8824  69.7611 0005047 300.0233 100.9676  0.98982472 51553,27715,S27715,-,27715,2003-013B,P,P,Galaxy 12,2003 Apr  9,S27716,SESINTU,US,2003 Apr  9 2330,In Earth orbit,-,2026 May  4 ,    1454.800 ,   36130, ,   36173, ,  6.88 , ,GEO/ID,27715
3.0,GENERATED VIA SPACE-TRACK.ORG API,2026-05-06T14:46:56,18 SPCS,GOES 3,1978-062A,EARTH,TEME,UTC,SGP4,2026-05-06T09:29:16.302912,0.99363072,0.0001356,6.9977,299.6468,12.0889,6.8751,0,U,10953,999,12812,0.00000000000000,-0.00000247,0.0000000000000,42421.417,1449.231,36049.034,36037.529,PAYLOAD,LARGE,US,1978-06-16,AFETR,,5177205,322298423,0 GOES 3,1 10953U 78062A   26126.39532758 -.00000247  00000-0  00000+0 0  9993,2 10953   6.9977 299.6468 0001356  12.0889   6.8751  0.99363072128125,10953,S10953,-,10953,1978-062A,P,P,GOES 3,1978 Jun 16,S10955,NOAA,US,1978 Jun 16 1114,In Earth orbit,-,2026 May  5 ,    1449.223 ,   36037, ,   36049, ,  7.00 , ,GEO/ID,10953
3.0,GENERATED VIA SPACE-TRACK.ORG API,2026-05-06T14:46:56,18 SPCS,CHINASAT 1C,2015-073A,EARTH,TEME,UTC,SGP4,2026-05-06T12:15:50.232384,0.99171832,0.0004784,6.9981,69.4303,188.5839,325.7125,0,U,41103,999,3813,0.00000000000000,-0.00000167,0.0000000000000,42475.935,1452.025,36118.121,36077.48,PAYLOAD,LARGE,PRC,2015-12-09,XSC,,5177167,322297941,0 CHINASAT 1C,1 41103U 15073A   26126.51099806 -.00000167  00000-0  00000+0 0  9994,2 41103   6.9981  69.4303 0004784 188.5839 325.7125  0.99171832 38134,41103,S41103,-,41103,2015-073A,P,P,Zhongxing 1C,2015 Dec  9,S41104,JHB,CN,2015 Dec  9 1711,In Earth orbit,-,2026 May  5 ,    1452.030 ,   36077, ,   36118, ,  6.99 , ,GEO/ID,41103
3.0,GENERATED VIA SPACE-TRACK.ORG API,2026-05-06T10:08:52,18 SPCS,ASTRA 2A,1998-050A,EARTH,TEME,UTC,SGP4,2026-05-06T02:14:38.711904,0.98661015,0.00227404,6.9987,69.4972,58.515,167.0326,0,U,25462,999,4585,0.00000000000000,-0.00000010,0.0000000000000,42622.422,1459.543,36341.212,36147.362,PAYLOAD,LARGE,SES,1998-08-30,TTMTR,,5176958,322265835,0 ASTRA 2A,1 25462U 98050A   26126.09350361 -.00000010  00000-0  00000-0 0  9997,2 25462   6.9987  69.4972 0022740  58.5150 167.0326  0.98661015 45859,25462,S25462,-,25462,1998-050A,P,P      G,Astra 2A,1998 Aug 30,S25465,SESSA,L,1998 Aug 30 0713,In Earth orbit,-,2026 May  4 ,    1459.550 ,   36147, ,   36341, ,  7.00 , ,GEO/ID,25462
3.0,GENERATED VIA SPACE-TRACK.ORG API,2026-05-06T14:56:52,18 SPCS,NSS 806 (INTELSAT 806),1998-014A,EARTH,TEME,UTC,SGP4,2026-05-06T07:37:13.035072,0.99077233,0.0002232,7.019,70.2307,94.7313,92.8887,0,U,25239,999,4655,0.00000000000000,-0.00000068,0.0000000000000,42502.968,1453.412,36134.32,36115.347,PAYLOAD,LARGE,SES,1998-02-28,AFETR,,5177554,322306355,0 NSS 806 (INTELSAT 806),1 25239U 98014A   26126.31751198 -.00000068  00000-0  00000+0 0  9999,2 25239   7.0190  70.2307 0002232  94.7313  92.8887  0.99077233 46557,25239,S25239,-,25239,1998-014A,P,P,NSS 806,1998 Feb 28,S25240,SESSAN,NL,1998 Feb 28 0051,In Earth orbit,-,2026 May  5 ,    1453.406 ,   36115, ,   36133, ,  7.02 , ,GEO/ID,25239
3.0,GENERATED VIA SPACE-TRACK.ORG API,2026-05-06T14:46:56,18 SPCS,ANIK A2 (TELESAT 2),1973-023A,EARTH,TEME,UTC,SGP4,2026-05-06T13:45:42.770880,0.99790301,0.0011738,7.0274,296.2346,76.7432,143.9954,0,U,6437,999,4673,0.00000000000000,-0.00000091,0.0000000000000,42300.252,1443.026,35971.769,35872.465,PAYLOAD,LARGE,CA,1973-04-20,AFETR,,5177138,322297028,0 ANIK A2 (TELESAT 2),1  6437U 73023A   26126.57341170 -.00000091  00000-0  00000+0 0  9990,2  6437   7.0274 296.2346 0011738  76.7432 143.9954  0.99790301 46736,6437,S06437,-,06437,1973-023A,P,P,Anik A2,1973 Apr 20,S13939,TCANL,CA,1973 Apr 21 0013,In Earth orbit,-,2026 May  4 ,    1443.021 ,   35872, ,   35971, ,  7.03 , ,GEO/ID,6437
3.0,GENERATED VIA SPACE-TRACK.ORG API,2026-05-06T14:46:56,18 SPCS,INTELSAT 1-F1,1965-028A,EARTH,TEME,UTC,SGP4,2026-05-06T12:41:38.865120,1.00178869,0.0004982,7.0575,64.1515,153.2506,86.839,0,U,1317,999,12675,0.00000000000000,-0.00000035,0.0000000000000,42190.8,1437.429,35833.684,35791.645,PAYLOAD,MEDIUM,ITSO,1965-04-06,AFETR,,5177030,322293969,0 INTELSAT 1-F1,1  1317U 65028A   26126.52892205 -.00000035  00000-0  00000+0 0  9991,2  1317   7.0575  64.1515 0004982 153.2506  86.8390  1.00178869126750,1317,S01317,-,01317,1965-028A,P,P,Early Bird,1965 Apr  6,S01318,SESINTU,US,1965 Apr  7 0016,In Earth orbit,-,2026 May  4 ,    1437.431 ,   35791, ,   35833, ,  7.05 , ,GEO/ID,1317
3.0,GENERATED VIA SPACE-TRACK.ORG API,2026-05-06T14:56:52,18 SPCS,APPLE,1981-057B,EARTH,TEME,UTC,SGP4,2026-05-06T12:41:18.859200,1.00026663,0.002422,7.1287,297.1748,224.2871,141.455,0,U,12545,999,12197,0.00000000000000,-0.00000014,0.0000000000000,42233.589,1439.616,35957.744,35753.164,PAYLOAD,LARGE,IND,1981-06-19,FRGUI,,5177363,322301901,0 APPLE,1 12545U 81057B   26126.52869050 -.00000014  00000-0  00000+0 0  9995,2 12545   7.1287 297.1748 0024220 224.2871 141.4550  1.00026663121972,12545,S12545,-,12545,1981-057B,P,P,Apple,1981 Jun 19,S12546,ISRO,IN,1981 Jun 19 1250,In Earth orbit,-,2026 May  5 ,    1439.619 ,   35753, ,   35957, ,  7.13 , ,GEO/ID,12545
3.0,GENERATED VIA SPACE-TRACK.ORG API,2026-05-06T14:46:56,18 SPCS,EKRAN 8,1982-009A,EARTH,TEME,UTC,SGP4,2026-05-06T07:54:31.181184,0.99949323,0.0028693,7.1588,296.7574,341.2152,44.2809,0,U,13056,999,11820,0.00000000000000,-0.00000204,0.0000000000000,42255.373,1440.73,35998.481,35755.994,PAYLOAD,LARGE,CIS,1982-02-05,TTMTR,,5177242,322299887,0 EKRAN 8,1 13056U 82009A   26126.32952756 -.00000204  00000-0  00000+0 0  9996,2 13056   7.1588 296.7574 0028693 341.2152  44.2809  0.99949323118209,13056,S13056,-,13056,1982-009A,P,P,Ekran,1982 Feb  5,S14117,KS,SU,1982 Feb  5 1549?,In Earth orbit,-,2026 May  5 ,    1440.729 ,   35755, ,   35998, ,  7.16 , ,GEO/ID,13056
3.0,GENERATED VIA SPACE-TRACK.ORG API,2026-05-06T10:08:52,18 SPCS,CHINASAT 20A,2010-064A,EARTH,TEME,UTC,SGP4,2026-05-06T03:44:29.151744,0.98419633,0.00245612,7.168,82.2577,270.448,110.237,0,U,37234,999,5635,0.00000000000000,-0.00000157,0.0000000000000,42692.083,1463.123,36418.805,36209.091,PAYLOAD,LARGE,PRC,2010-11-24,XSC,,5176958,322271003,0 CHINASAT 20A,1 37234U 10064A   26126.15589296 -.00000157  00000-0  00000-0 0  9996,2 37234   7.1680  82.2577 0024561 270.4480 110.2370  0.98419633 56353,37234,S37234,-,37234,2010-064A,P,P,Zhongxing 20A,2010 Nov 24,S37235,JHB,CN,2010 Nov 24 1633?,In Earth orbit,-,2026 May  4 ,    1463.130 ,   36208, ,   36419, ,  7.16 , ,GEO/ID,37234
3.0,GENERATED VIA SPACE-TRACK.ORG API,2026-05-06T10:08:52,18 SPCS,EUTE 12 WEST A (AB 1),2002-040A,EARTH,TEME,UTC,SGP4,2026-05-06T04:26:19.311936,0.98294708,0.00070157,7.1776,69.0186,8.3657,182.8015,0,U,27508,999,8623,0.00000000000000,-0.00000172,0.0000000000000,42728.248,1464.982,36380.09,36320.136,PAYLOAD,LARGE,EUTE,2002-08-28,FRGUI,,5176958,322266747,0 EUTE 12 WEST A (AB 1),1 27508U 02040A   26126.18494574 -.00000172  00000-0  00000-0 0  9998,2 27508   7.1776  69.0186 0007016   8.3657 182.8015  0.98294708 86236,27508,S27508,-,27508,2002-040A,P,P,EUTELSAT 59A,2002 Aug 28,S27511,EUTSA,F,2002 Aug 28 2313,In Earth orbit,-,2026 May  5 ,    1464.979 ,   36320, ,   36379, ,  7.17 , ,GEO/ID,27508
3.0,GENERATED VIA SPACE-TRACK.ORG API,2026-05-06T10:08:52,18 SPCS,WESTAR 1,1974-022A,EARTH,TEME,UTC,SGP4,2026-05-06T03:04:10.519392,0.99894559,0.00057343,7.2027,298.3191,48.5827,324.5779,0,U,7250,999,12191,0.00000000000000,0.00000140,0.0000000000000,42270.815,1441.52,35916.919,35868.44,PAYLOAD,LARGE,US,1974-04-13,AFETR,,5176958,322260876,0 WESTAR 1,1 07250U 74022A   26126.12789953  .00000140  00000-0  00000-0 0  9995,2 07250   7.2027 298.3191 0005734  48.5827 324.5779  0.99894559121919,7250,S07250,-,07250,1974-022A,P,P,Westar 1,1974 Apr 13,S07252,WUTC,US,1974 Apr 13 2358,In Earth orbit,-,2026 May  5 ,    1441.527 ,   35868, ,   35917, ,  7.21 , ,GEO/ID,7250
3.0,GENERATED VIA SPACE-TRACK.ORG API,2026-05-06T10:08:52,18 SPCS,EXPRESS AM-3,2005-023A,EARTH,TEME,UTC,SGP4,2026-05-06T04:30:41.393376,0.99002898,0.00037557,7.2066,68.5685,248.7433,319.5554,0,U,28707,999,5279,0.00000000000000,-0.00000215,0.0000000000000,42524.241,1454.503,36162.077,36130.135,PAYLOAD,LARGE,CIS,2005-06-24,TTMTR,,5176958,322267030,0 EXPRESS AM-3,1 28707U 05023A   26126.18797909 -.00000215  00000-0  00000-0 0  9990,2 28707   7.2066  68.5685 0003756 248.7433 319.5554  0.99002898 52797,28707,S28707,-,28707,2005-023A,P,P,Ekspress AM-3,2005 Jun 24,S28704,KS,RU,2005 Jun 25 0215,In Earth orbit,-,2026 May  5 ,    1454.502 ,   36129, ,   36162, ,  7.20 , ,GEO/ID,28707
